[Satellite]
VERSION=1.1
NAME=INTELSAT 19 (IS-19)
NICKNAME=INTELSAT 19 (IS-19)
TLE1=1 38356U 12030A   17185.75299014 -.00000062  00000-0  00000-0 0  9999
TLE2=2 38356   0.0220 332.7201 0002843 135.4591 251.8441  1.00271937 17692
